STARLINK-31986          
1 60019U 24111D   26068.30515708  .00000720  00000+0  36427-4 0  9990
2 60019  53.1603  77.4785 0001261  77.5395 282.5747 15.30197134 98983
2025-313BE              
1 67482U 25313BE  26068.69721505  .00077178  00000+0  26504-2 0  9996
2 67482  97.3989 145.3568 0007208 335.3714  24.7181 15.29801687  7972
